QIANFAN-97              
1 66039U 25233G   26016.54675808  .00000085  00000+0  11315-3 0  9993
2 66039  88.9934  58.5536 0001379 350.1616   9.9508 13.50972419 12714
QIANFAN-98              
1 66040U 25233H   26016.59697794  .00000103  00000+0  85509-4 0  9996
2 66040  88.9890  58.3428 0013166 286.0954  73.8764 13.80586246 12833
QIANFAN-99              
1 66041U 25233J   26016.55905513  .00000056  00000+0  68732-4 0  9990
2 66041  88.9925  58.5553 0008523 302.1047  57.9276 13.50973463 12714
QIANFAN-100             
1 66042U 25233K   26016.55082558  .00000037  00000+0  38951-4 0  9995
2 66042  88.9931  58.4639 0008819 299.9592  60.0683 13.50973534 12763
QIANFAN-101             
1 66043U 25233L   26016.59458673  .00000150  00000+0  56006-4 0  9992
2 66043  88.9926  58.0089 0012513 282.5741  77.4053 14.26694436 13010
QIANFAN-102             
1 66044U 25233M   26016.44096339  .00000089  00000+0  94722-4 0  9992
2 66044  88.9927  58.5024 0013348 299.6203  60.3626 13.65053933 12733
QIANFAN-103             
1 66045U 25233N   26016.57548645  .00000066  00000+0  84557-4 0  9999
2 66045  88.9927  58.5548 0011233 300.2525  59.7514 13.51009325 12719
QIANFAN-104             
1 66046U 25233P   26016.59359119  .00000096  00000+0  92109-4 0  9993
2 66046  88.9928  58.4706 0012433 303.0638  56.9330 13.71550560 12769
